{"type": "FeatureCollection", "features": [{"type": "Feature", "properties": {"name": "Block 4", "place": "city_block", "block": "4", "source": "local-override"}, "geometry": {"type": "Polygon", "coordinates": [[[121.2051295, 13.8649355], [121.2049251, 13.8648069], [121.2051921, 13.8643978], [121.205424, 13.8644437], [121.2056243, 13.8644834], [121.2056393, 13.864408], [121.2059087, 13.8642838], [121.2058103, 13.8647553], [121.205318, 13.8646496], [121.2051295, 13.8649355]]]}}, {"type": "Feature", "properties": {"name": "Block 3", "place": "city_block", "block": "3", "source": "local-override"}, "geometry": {"type": "Polygon", "coordinates": [[[121.2059617, 13.8641319], [121.2058848, 13.8641675], [121.2055969, 13.8643], [121.2054521, 13.8642765], [121.2052472, 13.8642444], [121.2051775, 13.8642429], [121.2048069, 13.8648056], [121.2048994, 13.8648425], [121.2049251, 13.8648069], [121.2051921, 13.8643978], [121.205424, 13.8644437], [121.2054383, 13.8643731], [121.2056393, 13.864408], [121.2059087, 13.8642838], [121.2059617, 13.8641319]]]}}]}